OBJECT_NAME,OBJECT_ID,EPOCH,MEAN_MOTION,ECCENTRICITY,INCLINATION,RA_OF_ASC_NODE,ARG_OF_PERICENTER,MEAN_ANOMALY,EPHEMERIS_TYPE,CLASSIFICATION_TYPE,NORAD_CAT_ID,ELEMENT_SET_NO,REV_AT_EPOCH,BSTAR,MEAN_MOTION_DOT,MEAN_MOTION_DDOT
ONEWEB-0572,2023-004M,2026-07-15T22:04:01.438176,13.17651572,.00019957,87.9146,0.1490,92.9119,267.2241,0,U,55151,999,17126,-.70447822E-4,-.14E-6,0
ONEWEB-0573,2023-004N,2026-07-15T20:55:54.260256,13.18684971,.00027747,87.9187,329.7638,95.5649,264.5800,0,U,55152,999,17347,-.47389175E-3,-.174E-5,0
ONEWEB-0588,2023-004P,2026-07-15T20:46:12.735552,13.18686979,.00021411,87.9186,329.7647,85.5530,274.5847,0,U,55153,999,17347,.18149659E-3,.84E-6,0
ONEWEB-0598,2023-004Q,2026-07-15T22:10:45.977664,13.11418861,.00025097,87.8886,15.3457,98.7428,261.3984,0,U,55154,999,16966,-.4923404E-3,-.162E-5,0
ONEWEB-0599,2023-004R,2026-07-15T21:08:07.492992,13.17650334,.00018831,87.9144,0.1553,99.7554,260.3790,0,U,55155,999,17126,.68891348E-4,.4E-6,0
ONEWEB-0614,2023-004S,2026-07-15T22:03:26.077248,13.11418224,.0001772,87.8882,15.3548,84.0803,276.0527,0,U,55156,999,16960,-.99373037E-3,-.339E-5,0
ONEWEB-0616,2023-004T,2026-07-15T22:08:52.378944,13.17650887,.00017994,87.9147,0.1509,122.4387,237.6918,0,U,55157,999,17148,-.42053145E-4,-.3E-7,0
ONEWEB-0617,2023-004U,2026-07-15T21:46:19.812000,13.11417698,.00019074,87.8888,15.3502,78.0190,282.1151,0,U,55158,999,16962,-.1560487E-2,-.54E-5,0
ONEWEB-0618,2023-004V,2026-07-15T22:57:16.930944,15.13379702,.00122843,86.9108,165.9533,171.9805,188.1634,0,U,55159,999,18661,.18561816E-3,.3349E-4,0
ONEWEB-0619,2023-004W,2026-07-15T21:05:41.690400,13.17650494,.0001452,87.9155,0.1430,89.8791,270.2507,0,U,55160,999,17137,.9738725E-5,.17E-6,0
ONEWEB-0620,2023-004X,2026-07-15T21:39:00.808416,13.11415953,.00021208,87.8881,15.3578,90.7812,269.3559,0,U,55161,999,16959,-.13796778E-2,-.476E-5,0
ONEWEB-0621,2023-004Y,2026-07-15T22:18:05.783904,13.11418079,.00017326,87.8891,15.3439,83.4384,276.6941,0,U,55162,999,16957,.32066353E-3,.126E-5,0
ONEWEB-0622,2023-004Z,2026-07-15T22:25:25.597056,13.11418175,.00021953,87.8892,15.3459,71.7379,288.3988,0,U,55163,999,16956,.70321267E-3,.262E-5,0
ONEWEB-0623,2023-004AA,2026-07-15T20:58:24.871008,13.17648192,.00016347,87.9141,0.1709,68.3213,291.8092,0,U,55164,999,17136,-.82834759E-4,-.19E-6,0
ONEWEB-0624,2023-004AB,2026-07-15T20:23:14.242560,13.12929708,.00017705,87.8967,344.8814,91.3914,268.7417,0,U,55165,999,17183,.59053769E-3,.227E-5,0
ONEWEB-0625,2023-004AC,2026-07-15T22:33:10.420416,13.17649452,.00017286,87.9142,0.1538,95.4789,264.6540,0,U,55166,999,17136,-.48683073E-3,-.176E-5,0
ONEWEB-0626,2023-004AD,2026-07-15T22:18:37.088352,13.17650708,.00021924,87.9145,0.1553,97.9150,262.2231,0,U,55167,999,17136,.27990609E-4,.24E-6,0
ONEWEB-0627,2023-004AE,2026-07-15T22:01:36.036480,13.17648590,.000167,87.9146,0.1583,79.3882,280.7437,0,U,55168,999,17136,-.48626741E-4,-.6E-7,0
ONEWEB-0628,2023-004AF,2026-07-15T22:01:31.636128,13.12443830,.00014899,87.8969,344.9409,76.0247,284.1047,0,U,55169,999,17180,-.20589836E-3,-.61E-6,0
ONEWEB-0629,2023-004AG,2026-07-15T21:26:21.773184,13.17649504,.00015442,87.9144,0.1590,91.3571,268.7738,0,U,55170,999,17136,.30150846E-4,.25E-6,0
ONEWEB-0631,2023-004AH,2026-07-15T22:25:45.882912,13.18686343,.00023198,87.9198,329.7196,90.0772,270.0626,0,U,55171,999,17346,.400779E-6,.13E-6,0
ONEWEB-0709,2023-004AJ,2026-07-15T23:14:14.910432,13.11414738,.00026776,87.8881,15.3470,99.3818,260.7613,0,U,55172,999,16964,-.21668959E-3,-.64E-6,0
ONEWEB-0710,2023-004AK,2026-07-15T21:47:01.004928,13.17648527,.00018783,87.9145,0.1516,87.6965,272.4382,0,U,55173,999,17136,.15776741E-3,.74E-6,0
ONEWEB-0711,2023-004AL,2026-07-15T22:32:45.172608,13.11417904,.00018789,87.8887,15.3405,67.8078,292.3249,0,U,55174,999,16960,.12270635E-2,.448E-5,0
ONEWEB-0713,2023-004AM,2026-07-15T21:09:44.655840,13.11415067,.0001842,87.8886,15.3545,79.3860,280.7475,0,U,55175,999,16958,.99869013E-3,.367E-5,0
ONEWEB-0715,2023-004AN,2026-07-15T17:22:41.299104,13.11415195,.00025453,87.8884,15.3861,91.3336,268.8083,0,U,55176,999,16960,.1314863E-2,.479E-5,0
ONEWEB-0716,2023-004AP,2026-07-15T21:37:17.760864,13.17648272,.00017695,87.9145,0.1556,99.3411,260.7920,0,U,55177,999,17136,-.24390059E-4,.3E-7,0
ONEWEB-0717,2023-004AQ,2026-07-15T21:12:59.532768,13.17649850,.00020683,87.9155,0.1495,77.0291,283.1072,0,U,55178,999,17141,.55415715E-4,.34E-6,0
ONEWEB-0719,2023-004AR,2026-07-15T21:27:33.761664,13.17650480,.00016777,87.9154,0.1277,96.5290,263.6033,0,U,55179,999,17136,-.48943174E-4,-.6E-7,0
ONEWEB-0530,2023-029A,2026-07-15T17:25:25.478112,13.20772442,.00018394,87.9179,268.7795,88.5865,271.5479,0,U,55796,999,16491,-.24392788E-3,-.86E-6,0
