ONEWEB-0572             
1 55151U 23004M   26196.91946109 -.00000014  00000+0 -70448-4 0  9992
2 55151  87.9146   0.1490 0001995  92.9119 267.2241 13.17651572171262
ONEWEB-0573             
1 55152U 23004N   26196.87215579 -.00000174  00000+0 -47389-3 0  9992
2 55152  87.9187 329.7638 0002774  95.5649 264.5800 13.18684971173471
ONEWEB-0588             
1 55153U 23004P   26196.86542518  .00000084  00000+0  18150-3 0  9990
2 55153  87.9186 329.7647 0002141  85.5530 274.5847 13.18686979173479
ONEWEB-0598             
1 55154U 23004Q   26196.92414326 -.00000162  00000+0 -49234-3 0  9999
2 55154  87.8886  15.3457 0002509  98.7428 261.3984 13.11418861169661
ONEWEB-0599             
1 55155U 23004R   26196.88064228  .00000040  00000+0  68891-4 0  9991
2 55155  87.9144   0.1553 0001883  99.7554 260.3790 13.17650334171266
ONEWEB-0614             
1 55156U 23004S   26196.91905182 -.00000339  00000+0 -99373-3 0  9990
2 55156  87.8882  15.3548 0001772  84.0803 276.0527 13.11418224169609
ONEWEB-0616             
1 55157U 23004T   26196.92282846 -.00000003  00000+0 -42053-4 0  9999
2 55157  87.9147   0.1509 0001799 122.4387 237.6918 13.17650887171482
ONEWEB-0617             
1 55158U 23004U   26196.90717375 -.00000540  00000+0 -15605-2 0  9995
2 55158  87.8888  15.3502 0001907  78.0190 282.1151 13.11417698169626
ONEWEB-0618             
1 55159U 23004V   26196.95644596  .00003349  00000+0  18562-3 0  9999
2 55159  86.9108 165.9533 0012284 171.9805 188.1634 15.13379702186610
ONEWEB-0619             
1 55160U 23004W   26196.87895475  .00000017  00000+0  97387-5 0  9999
2 55160  87.9155   0.1430 0001452  89.8791 270.2507 13.17650494171378
ONEWEB-0620             
1 55161U 23004X   26196.90209269 -.00000476  00000+0 -13797-2 0  9995
2 55161  87.8881  15.3578 0002120  90.7812 269.3559 13.11415953169593
ONEWEB-0621             
1 55162U 23004Y   26196.92923361  .00000126  00000+0  32066-3 0  9995
2 55162  87.8891  15.3439 0001732  83.4384 276.6941 13.11418079169578
ONEWEB-0622             
1 55163U 23004Z   26196.93432404  .00000262  00000+0  70321-3 0  9997
2 55163  87.8892  15.3459 0002195  71.7379 288.3988 13.11418175169567
ONEWEB-0623             
1 55164U 23004AA  26196.87389897 -.00000019  00000+0 -82835-4 0  9994
2 55164  87.9141   0.1709 0001634  68.3213 291.8092 13.17648192171368
ONEWEB-0624             
1 55165U 23004AB  26196.84947040  .00000227  00000+0  59054-3 0  9997
2 55165  87.8967 344.8814 0001770  91.3914 268.7417 13.12929708171830
ONEWEB-0625             
1 55166U 23004AC  26196.93970394 -.00000176  00000+0 -48683-3 0  9997
2 55166  87.9142   0.1538 0001728  95.4789 264.6540 13.17649452171360
ONEWEB-0626             
1 55167U 23004AD  26196.92959593  .00000024  00000+0  27991-4 0  9995
2 55167  87.9145   0.1553 0002192  97.9150 262.2231 13.17650708171363
ONEWEB-0627             
1 55168U 23004AE  26196.91777820 -.00000006  00000+0 -48627-4 0  9997
2 55168  87.9146   0.1583 0001670  79.3882 280.7437 13.17648590171363
ONEWEB-0628             
1 55169U 23004AF  26196.91772727 -.00000061  00000+0 -20590-3 0  9998
2 55169  87.8969 344.9409 0001489  76.0247 284.1047 13.12443830171808
ONEWEB-0629             
1 55170U 23004AG  26196.89330756  .00000025  00000+0  30151-4 0  9992
2 55170  87.9144   0.1590 0001544  91.3571 268.7738 13.17649504171367
ONEWEB-0631             
1 55171U 23004AH  26196.93455883  .00000013  00000+0  40078-6 0  9995
2 55171  87.9198 329.7196 0002319  90.0772 270.0626 13.18686343173467
ONEWEB-0709             
1 55172U 23004AJ  26196.96822813 -.00000064  00000+0 -21669-3 0  9990
2 55172  87.8881  15.3470 0002677  99.3818 260.7613 13.11414738169646
ONEWEB-0710             
1 55173U 23004AK  26196.90765052  .00000074  00000+0  15777-3 0  9998
2 55173  87.9145   0.1516 0001878  87.6965 272.4382 13.17648527171365
ONEWEB-0711             
1 55174U 23004AL  26196.93941172  .00000448  00000+0  12271-2 0  9991
2 55174  87.8887  15.3405 0001878  67.8078 292.3249 13.11417904169602
ONEWEB-0713             
1 55175U 23004AM  26196.88176685  .00000367  00000+0  99869-3 0  9994
2 55175  87.8886  15.3545 0001842  79.3860 280.7475 13.11415067169582
ONEWEB-0715             
1 55176U 23004AN  26196.72408911  .00000479  00000+0  13149-2 0  9998
2 55176  87.8884  15.3861 0002545  91.3336 268.8083 13.11415195169602
ONEWEB-0716             
1 55177U 23004AP  26196.90090001  .00000003  00000+0 -24390-4 0  9992
2 55177  87.9145   0.1556 0001769  99.3411 260.7920 13.17648272171363
ONEWEB-0717             
1 55178U 23004AQ  26196.88402237  .00000034  00000+0  55416-4 0  9994
2 55178  87.9155   0.1495 0002068  77.0291 283.1072 13.17649850171415
ONEWEB-0719             
1 55179U 23004AR  26196.89414076 -.00000006  00000+0 -48943-4 0  9998
2 55179  87.9154   0.1277 0001677  96.5290 263.6033 13.17650480171368
ONEWEB-0530             
1 55796U 23029A   26196.72598933 -.00000086  00000+0 -24393-3 0  9997
2 55796  87.9179 268.7795 0001839  88.5865 271.5479 13.20772442164918
